STARLINK-32184          
1 60942U 24155U   26068.45869868 -.00002923  00000+0 -86684-4 0  9997
2 60942  53.1599 130.8751 0000992  67.7239 292.3867 15.30171337 86253
KUIPER-00208            
1 67775U 26030M   26068.67231509  .00043852  00000+0  13883-2 0  9994
2 67775  51.8846 219.6993 0015525  57.3146 302.9333 15.32208734  5080
