[{"OBJECT_NAME":"STARLINK-32184","OBJECT_ID":"2024-155U","EPOCH":"2026-03-09T11:00:31.565952","MEAN_MOTION":15.30171337,"ECCENTRICITY":9.928e-5,"INCLINATION":53.1599,"RA_OF_ASC_NODE":130.8751,"ARG_OF_PERICENTER":67.7239,"MEAN_ANOMALY":292.3867,"EPHEMERIS_TYPE":0,"CLASSIFICATION_TYPE":"U","NORAD_CAT_ID":60942,"ELEMENT_SET_NO":999,"REV_AT_EPOCH":8625,"BSTAR":-8.6684089e-5,"MEAN_MOTION_DOT":-2.923e-5,"MEAN_MOTION_DDOT":0},{"OBJECT_NAME":"KUIPER-00208","OBJECT_ID":"2026-030M","EPOCH":"2026-03-09T16:08:08.024640","MEAN_MOTION":15.32208734,"ECCENTRICITY":0.00155248,"INCLINATION":51.8846,"RA_OF_ASC_NODE":219.6993,"ARG_OF_PERICENTER":57.3146,"MEAN_ANOMALY":302.9333,"EPHEMERIS_TYPE":0,"CLASSIFICATION_TYPE":"U","NORAD_CAT_ID":67775,"ELEMENT_SET_NO":999,"REV_AT_EPOCH":508,"BSTAR":0.0013882708,"MEAN_MOTION_DOT":0.00043852,"MEAN_MOTION_DDOT":0}]
